H1 CPF 01  gfz 2021 12 12 01  8461 tandemx   
H2 1003001  6202 36605    2021 12 12 00 59 42 2021 12 17 00 00 42   120 1 1  0 0 0
H9
10 0 59564   5742.000000  0   -1736849.123  -1896921.835   6379700.791
10 0 59564   5862.000000  0   -1428650.940  -1070177.334   6642393.252
10 0 59564   5982.000000  0   -1080941.994   -230498.083   6788355.310
10 0 59564   6102.000000  0    -699698.990    606824.093   6815039.086
10 0 59564   6222.000000  0    -291747.302   1426653.032   6721979.089
10 0 59564   6342.000000  0     135361.278   2214281.685   6510800.141
10 0 59564   6462.000000  0     573488.079   2955695.872   6185190.433
10 0 59564   6582.000000  0    1014061.446   3637824.019   5750841.169
10 0 59564   6702.000000  0    1448242.957   4248770.774   5215352.795
10 0 59564   6822.000000  0    1867103.520   4778029.658   4588108.172
10 0 59564   6942.000000  0    2261806.440   5216670.884   3880113.032
10 0 59564   7062.000000  0    2623793.264   5557498.374   3103807.081
10 0 59564   7182.000000  0    2944968.878   5795178.276   2272847.945
10 0 59564   7302.000000  0    3217881.200   5926330.230   1401866.101
10 0 59564   7422.000000  0    3435889.463   5949576.908    506201.295
10 0 59564   7542.000000  0    3593317.818   5865554.815   -398374.811
10 0 59564   7662.000000  0    3685591.228   5676883.638  -1295945.038
10 0 59564   7782.000000  0    3709348.830   5388095.912  -2170734.636
10 0 59564   7902.000000  0    3662532.959   5005528.951  -3007395.942
10 0 59564   8022.000000  0    3544450.508   4537181.164  -3791282.812
10 0 59564   8142.000000  0    3355805.590   3992537.526  -4508707.840
10 0 59564   8262.000000  0    3098704.502   3382370.801  -5147178.530
10 0 59564   8382.000000  0    2776632.394   2718521.619  -5695609.267
10 0 59564   8502.000000  0    2394403.191   2013663.272  -6144504.466
10 0 59564   8622.000000  0    1958083.770   1281057.053  -6486112.021
10 0 59564   8742.000000  0    1474895.447    534303.088  -6714544.655
10 0 59564   8862.000000  0     953094.718   -212908.286  -6825871.720
10 0 59564   8982.000000  0     401832.473   -947043.047  -6818180.215
10 0 59564   9102.000000  0    -169003.702  -1654962.721  -6691602.143
10 0 59564   9222.000000  0    -748961.668  -2324152.383  -6448312.490
10 0 59564   9342.000000  0   -1327211.533  -2942937.706  -6092497.379
10 0 59564   9462.000000  0   -1892742.960  -3500686.589  -5630288.955
10 0 59564   9582.000000  0   -2434570.225  -3987991.820  -5069670.640
10 0 59564   9702.000000  0   -2941943.828  -4396834.253  -4420351.785
10 0 59564   9822.000000  0   -3404564.037  -4720721.327  -3693609.755
10 0 59564   9942.000000  0   -3812790.873  -4954797.520  -2902102.901
10 0 59564  10062.000000  0   -4157847.393  -5095924.970  -2059656.354
10 0 59564  10182.000000  0   -4432011.010  -5142731.184  -1181022.911
10 0 59564  10302.000000  0   -4628787.580  -5095622.229   -281623.161
10 0 59564  10422.000000  0   -4743063.411  -4956760.488    622730.172
10 0 59564  10542.000000  0   -4771231.211  -4730006.662   1516118.336
10 0 59564  10662.000000  0   -4711285.553  -4420826.207   2382806.490
10 0 59564  10782.000000  0   -4562885.481  -4036163.325   3207529.547
10 0 59564  10902.000000  0   -4327383.456  -3584286.245   3975768.121
10 0 59564  11022.000000  0   -4007819.584  -3074607.582   4674009.673
10 0 59564  11142.000000  0   -3608880.733  -2517483.796   5289987.667
10 0 59564  11262.000000  0   -3136828.015  -1924001.189   5812894.703
10 0 59564  11382.000000  0   -2599394.111  -1305752.872   6233569.151
10 0 59564  11502.000000  0   -2005651.545   -674609.143   6544651.845
10 0 59564  11622.000000  0   -1365854.080    -42486.704   6740708.617
10 0 59564  11742.000000  0    -691256.708    578875.426   6818317.531
10 0 59564  11862.000000  0       6082.175   1178132.593   6776125.090
10 0 59564  11982.000000  0     713515.883   1744541.269   6614868.740
10 0 59564  12102.000000  0    1418038.404   2268151.890   6337364.581
10 0 59564  12222.000000  0    2106522.608   2739983.485   5948460.650
10 0 59564  12342.000000  0    2765964.511   3152179.055   5454958.270
10 0 59564  12462.000000  0    3383731.244   3498140.015   4865499.863
10 0 59564  12582.000000  0    3947806.223   3772635.323   4190421.576
10 0 59564  12702.000000  0    4447025.648   3971883.576   3441578.323
10 0 59564  12822.000000  0    4871308.025   4093608.884   2632138.010
10 0 59564  12942.000000  0    5211862.248   4137063.582   1776347.254
10 0 59564  13062.000000  0    5461374.646   4103020.719    889277.441
10 0 59564  13182.000000  0    5614167.973   3993734.989    -13447.980
10 0 59564  13302.000000  0    5666327.906   3812872.932   -915937.772
10 0 59564  13422.000000  0    5615793.843   3565414.175  -1802321.322
10 0 59564  13542.000000  0    5462412.249   3257526.381  -2657035.537
10 0 59564  13662.000000  0    5207951.287   2896417.882  -3465103.192
10 0 59564  13782.000000  0    4856078.335   2490172.490  -4212397.995
10 0 59564  13902.000000  0    4412299.276   2047569.220  -4885892.121
10 0 59564  14022.000000  0    3883862.011   1577891.736  -5473877.670
10 0 59564  14142.000000  0    3279629.253   1090734.413  -5966161.728
10 0 59564  14262.000000  0    2609922.276    595807.932  -6354233.180
10 0 59564  14382.000000  0    1886339.265    102748.366  -6631397.830
10 0 59564  14502.000000  0    1121553.990   -379066.193  -6792882.803
10 0 59564  14622.000000  0     329095.433   -840690.120  -6835911.460
10 0 59564  14742.000000  0    -476888.207  -1273771.965  -6759744.216
10 0 59564  14862.000000  0   -1281875.234  -1670700.936  -6565689.579
10 0 59564  14982.000000  0   -2071226.109  -2024737.830  -6257084.989
10 0 59564  15102.000000  0   -2830443.894  -2330127.936  -5839244.867
10 0 59564  15222.000000  0   -3545435.378  -2582194.251  -5319379.084
10 0 59564  15342.000000  0   -4202772.483  -2777411.094  -4706481.059
10 0 59564  15462.000000  0   -4789947.482  -2913455.135  -4011182.972
10 0 59564  15582.000000  0   -5295616.197  -2989232.546  -3245581.273
10 0 59564  15702.000000  0   -5709825.411  -3004881.816  -2423033.755
10 0 59564  15822.000000  0   -6024218.142  -2961751.270  -1557930.090
10 0 59564  15942.000000  0   -6232211.219  -2862351.694   -665440.296
10 0 59564  16062.000000  0   -6329140.628  -2710284.366    238754.940
10 0 59564  16182.000000  0   -6312370.357  -2510146.153   1138746.060
10 0 59564  16302.000000  0   -6181361.142  -2267413.905   2018684.070
10 0 59564  16422.000000  0   -5937694.799  -1988310.439   2863069.293
10 0 59564  16542.000000  0   -5585057.007  -1679656.290   3657031.641
10 0 59564  16662.000000  0   -5129177.356  -1348710.874   4386600.244
10 0 59564  16782.000000  0   -4577726.653  -1003006.592   5038951.837
10 0 59564  16902.000000  0   -3940179.541   -650181.848   5602634.605
10 0 59564  17022.000000  0   -3227643.943   -297815.672   6067767.406
10 0 59564  17142.000000  0   -2452659.058     46733.178   6426208.973
10 0 59564  17262.000000  0   -1628967.558    376477.201   6671694.015
10 0 59564  17382.000000  0    -771267.895    684938.950   6799936.369
10 0 59564  17502.000000  0     105049.183    966276.723   6808698.798
10 0 59564  17622.000000  0     984176.183   1215394.195   6697829.237
10 0 59564  17742.000000  0    1850173.022   1428032.925   6469263.436
10 0 59564  17862.000000  0    2687255.129   1600845.397   6126993.023
10 0 59564  17982.000000  0    3480081.543   1731447.800   5677000.916
10 0 59564  18102.000000  0    4214039.126   1818451.757   5127162.028
10 0 59564  18222.000000  0    4875515.232   1861474.900   4487111.674
10 0 59564  18342.000000  0    5452158.085   1861130.694   3768084.042
10 0 59564  18462.000000  0    5933118.113   1818995.599   2982716.108
10 0 59564  18582.000000  0    6309259.373   1737555.208   2144825.455
10 0 59564  18702.000000  0    6573343.368   1620130.361   1269165.496
10 0 59564  18822.000000  0    6720175.033   1470784.585    371158.967
10 0 59564  18942.000000  0    6746708.906   1294215.934   -533381.043
10 0 59564  19062.000000  0    6652112.143   1095635.271  -1428539.447
10 0 59564  19182.000000  0    6437781.842    880633.109  -2298586.890
10 0 59564  19302.000000  0    6107319.058    655039.747  -3128262.921
10 0 59564  19422.000000  0    5666458.332    424783.177  -3903048.158
10 0 59564  19542.000000  0    5122955.836    195747.356  -4609419.743
10 0 59564  19662.000000  0    4486439.023    -26365.777  -5235083.609
10 0 59564  19782.000000  0    3768224.693   -236166.434  -5769180.556
10 0 59564  19902.000000  0    2981109.369   -428697.039  -6202465.815
10 0 59564  20022.000000  0    2139134.421   -599540.235  -6527458.581
10 0 59564  20142.000000  0    1257333.495   -744912.331  -6738558.694
10 0 59564  20262.000000  0     351466.381   -861741.606  -6832134.217
10 0 59564  20382.000000  0    -562258.973   -947728.864  -6806576.746
10 0 59564  20502.000000  0   -1467469.259  -1001390.607  -6662325.537
10 0 59564  20622.000000  0   -2347912.728  -1022084.015  -6401861.226
10 0 59564  20742.000000  0   -3187744.398  -1010013.283  -6029666.406
10 0 59564  20862.000000  0   -3971805.219   -966217.702  -5552157.453
10 0 59564  20982.000000  0   -4685895.846   -892541.369  -4977585.717
10 0 59564  21102.000000  0   -5317036.876   -791584.565  -4315905.988
10 0 59564  21222.000000  0   -5853711.407   -666638.290  -3578615.310
10 0 59564  21342.000000  0   -6286086.087   -521602.093  -2778562.148
10 0 59564  21462.000000  0   -6606203.467   -360886.674  -1929727.693
10 0 59564  21582.000000  0   -6808141.820   -189304.398  -1046983.861
10 0 59564  21702.000000  0   -6888138.069    -11948.191   -145829.333
10 0 59564  21822.000000  0   -6844665.305    165937.152    757889.280
10 0 59564  21942.000000  0   -6678467.642    339087.623   1648262.719
10 0 59564  22062.000000  0   -6392550.075    502353.268   2509608.285
10 0 59564  22182.000000  0   -5992121.961    650828.995   3326755.316
99
